OBJECT_NAME,OBJECT_ID,EPOCH,MEAN_MOTION,ECCENTRICITY,INCLINATION,RA_OF_ASC_NODE,ARG_OF_PERICENTER,MEAN_ANOMALY,EPHEMERIS_TYPE,CLASSIFICATION_TYPE,NORAD_CAT_ID,ELEMENT_SET_NO,REV_AT_EPOCH,BSTAR,MEAN_MOTION_DOT,MEAN_MOTION_DDOT
SKYSAT-C4,2016-058B,2026-07-10T20:20:10.698720,15.49338612,.0003311,96.9170,212.6388,124.5912,235.5653,0,U,41771,999,54913,.20937E-3,.11381E-3,0
SKYSAT-C5,2016-058C,2026-07-09T22:14:08.690208,15.33955160,.00020348,97.0465,230.5527,135.3938,224.7470,0,U,41772,999,54723,.22859962E-3,.7436E-4,0
SKYSAT-C2,2016-058D,2026-07-10T11:40:06.062592,15.42607580,.00020347,97.0164,212.7103,13.3625,346.7677,0,U,41773,999,54864,.2024409E-3,.8725E-4,0
SKYSAT-C3,2016-058E,2026-07-10T00:24:41.926752,15.53540793,.00021894,96.9003,220.9981,133.5121,226.6316,0,U,41774,999,54965,.284373E-3,.18005E-3,0
ALSAT-1B,2016-059C,2026-07-11T03:54:56.380320,14.72291312,.0010026,97.7758,199.8921,141.3593,218.8334,0,U,41785,999,52410,-.19184E-4,-.168E-5,0
PATHFINDER 1,2016-059E,2026-07-10T19:02:55.425120,14.67690023,.0029612,97.8173,190.0053,129.1474,231.2370,0,U,41787,999,52317,.6608E-4,.332E-5,0
SCATSAT 1,2016-059H,2026-07-11T03:41:48.706080,14.79580882,.0054927,98.1179,256.1664,169.4566,190.7811,0,U,41790,999,10513,.98624E-4,.7E-5,0
GOKTURK 1A,2016-073A,2026-07-11T04:29:16.569312,14.62792135,.000144,98.1223,86.4823,79.6981,280.4383,0,U,41875,999,51233,.79504E-4,.359E-5,0
RESOURCESAT-2A,2016-074A,2026-07-11T05:05:13.269696,14.21606876,.0002641,98.7521,265.5190,37.1710,322.9649,0,U,41877,999,49771,-.11384E-3,-.294E-5,0
CARTOSAT-2D,2017-008A,2026-07-11T04:46:12.751680,15.19265949,.0005721,97.4098,251.0541,149.9639,210.1924,0,U,41948,999,52122,.12341E-3,.2535E-4,0
SENTINEL-2B,2017-013A,2026-07-11T04:38:39.632064,14.30813797,.0001217,98.5686,266.6285,90.9498,269.1825,0,U,42063,999,48807,-.40229E-4,-.149E-5,0
CARTOSAT-2E,2017-036C,2026-07-11T03:36:50.535360,15.19237517,.0002885,97.4272,251.5560,202.6396,157.4711,0,U,42767,999,50178,.14938E-3,.3079E-4,0
FORMOSAT-5,2017-049A,2026-07-11T04:33:34.260768,14.50907166,.0011607,98.2247,266.9659,15.9981,344.1578,0,U,42920,999,47015,.23374E-4,.49E-6,0
SENTINEL-5P,2017-064A,2026-07-10T07:42:36.714528,14.19522787,.00011159,98.7929,133.2886,92.4357,267.6947,0,U,42969,999,45284,.24329893E-4,.7E-7,0
SKYSAT-C11,2017-068A,2026-07-09T15:48:01.789056,15.59105762,.00008121,97.4368,340.4901,166.0165,194.1114,0,U,42987,999,48674,.27644744E-3,.21499E-3,0
SKYSAT-C10,2017-068B,2026-07-09T15:42:35.169408,15.35042344,.00013609,97.4523,327.7297,109.0541,251.0850,0,U,42988,999,48580,.23222205E-3,.7814E-4,0
SKYSAT-C9,2017-068C,2026-07-11T04:28:53.357088,15.42149851,.0008945,97.4444,330.4450,57.4451,302.7659,0,U,42989,999,48645,.19496E-3,.8274E-4,0
SKYSAT-C8,2017-068D,2026-07-09T15:45:21.893760,15.37418486,.00012242,97.4543,327.6181,99.9689,260.1694,0,U,42990,999,48576,.20711554E-3,.7514E-4,0
SKYSAT-C7,2017-068E,2026-07-11T01:59:09.300192,15.37390204,.0006075,97.4553,330.0557,35.1418,325.0226,0,U,42991,999,48604,.17785E-3,.6437E-4,0
SKYSAT-C6,2017-068F,2026-07-11T03:34:40.321056,15.34124750,.0005167,97.4591,329.9947,99.1349,261.0479,0,U,42992,999,48599,.17135E-3,.5579E-4,0
CARTOSAT-2F,2018-004A,2026-07-11T04:23:46.808160,15.19251955,.0002437,97.4780,251.5815,146.2665,213.8725,0,U,43111,999,47097,.15944E-3,.3292E-4,0
GAOFEN-1 02,2018-031A,2026-07-11T05:19:13.295424,14.76469977,.0001633,98.0518,254.6801,308.9652,51.1412,0,U,43259,999,44624,.10202E-3,.658E-5,0
GAOFEN-1 03,2018-031B,2026-07-11T04:47:38.920992,14.76459166,.0002726,98.0505,254.5140,26.4806,333.6542,0,U,43260,999,44623,.61001E-4,.373E-5,0
GAOFEN-1 04,2018-031D,2026-07-11T04:12:41.610240,14.76466641,.0001459,98.0519,254.6835,57.6747,302.4603,0,U,43262,999,44622,-.17657E-5,-.64E-6,0
SENTINEL-3B,2018-039A,2026-07-11T04:10:42.644352,14.26741288,.0001055,98.6238,259.3610,120.7417,239.3868,0,U,43437,999,42754,.33847E-4,.38E-6,0
GAOFEN-5 01,2018-043A,2026-07-09T16:02:21.142464,14.60621115,.00023973,98.4586,162.7286,43.0598,317.0789,0,U,43461,999,43497,.53023303E-4,.209E-5,0
GAOFEN-6,2018-048A,2026-07-11T04:44:49.894944,14.76380021,.0012135,98.0962,254.8901,93.0498,267.2100,0,U,43484,999,43693,.4219E-4,.241E-5,0
GAOFEN-11 01,2018-063A,2026-07-11T03:59:56.489856,15.55984648,.0002825,97.1286,258.9869,216.5905,143.5158,0,U,43585,999,44407,.13217E-3,.9088E-4,0
ICESAT-2,2018-070A,2026-07-11T04:27:46.278720,15.28305826,.0005755,92.0088,297.4639,74.0228,286.1655,0,U,43613,999,43612,.21552E-3,.5943E-4,0
HYSIS,2018-096A,2026-07-11T04:00:18.461376,14.78666692,.0001864,97.9832,258.7254,86.4567,273.6857,0,U,43719,999,41096,.11306E-3,.777E-5,0
