SKYSAT-C4               
1 41771U 16058B   26191.84734605  .00011381  00000+0  20937-3 0  9993
2 41771  96.9170 212.6388 0003311 124.5912 235.5653 15.49338612549139
SKYSAT-C5               
1 41772U 16058C   26190.92648947  .00007436  00000+0  22860-3 0  9998
2 41772  97.0465 230.5527 0002034 135.3938 224.7470 15.33955160547234
SKYSAT-C2               
1 41773U 16058D   26191.48618128  .00008725  00000+0  20244-3 0  9995
2 41773  97.0164 212.7103 0002034  13.3625 346.7677 15.42607580548641
SKYSAT-C3               
1 41774U 16058E   26191.01715193  .00018005  00000+0  28437-3 0  9999
2 41774  96.9003 220.9981 0002189 133.5121 226.6316 15.53540793549656
ALSAT-1B                
1 41785U 16059C   26192.16315255 -.00000168  00000+0 -19184-4 0  9997
2 41785  97.7758 199.8921 0010026 141.3593 218.8334 14.72291312524107
PATHFINDER 1            
1 41787U 16059E   26191.79369705  .00000332  00000+0  66080-4 0  9994
2 41787  97.8173 190.0053 0029612 129.1474 231.2370 14.67690023523174
SCATSAT 1               
1 41790U 16059H   26192.15403595  .00000700  00000+0  98624-4 0  9993
2 41790  98.1179 256.1664 0054927 169.4566 190.7811 14.79580882105131
GOKTURK 1A              
1 41875U 16073A   26192.18699733  .00000359  00000+0  79504-4 0  9993
2 41875  98.1223  86.4823 0001440  79.6981 280.4383 14.62792135512334
RESOURCESAT-2A          
1 41877U 16074A   26192.21195914 -.00000294  00000+0 -11384-3 0  9993
2 41877  98.7521 265.5190 0002641  37.1710 322.9649 14.21606876497715
CARTOSAT-2D             
1 41948U 17008A   26192.19875870  .00002535  00000+0  12341-3 0  9995
2 41948  97.4098 251.0541 0005721 149.9639 210.1924 15.19265949521221
SENTINEL-2B             
1 42063U 17013A   26192.19351426 -.00000149  00000+0 -40229-4 0  9994
2 42063  98.5686 266.6285 0001217  90.9498 269.1825 14.30813797488077
CARTOSAT-2E             
1 42767U 17036C   26192.15058490  .00003079  00000+0  14938-3 0  9991
2 42767  97.4272 251.5560 0002885 202.6396 157.4711 15.19237517501782
FORMOSAT-5              
1 42920U 17049A   26192.18997987  .00000049  00000+0  23374-4 0  9991
2 42920  98.2247 266.9659 0011607  15.9981 344.1578 14.50907166470150
SENTINEL-5P             
1 42969U 17064A   26191.32125827  .00000007  00000+0  24330-4 0  9999
2 42969  98.7929 133.2886 0001115  92.4357 267.6947 14.19522787452845
SKYSAT-C11              
1 42987U 17068A   26190.65835404  .00021499  00000+0  27645-3 0  9996
2 42987  97.4368 340.4901 0000812 166.0165 194.1114 15.59105762486747
SKYSAT-C10              
1 42988U 17068B   26190.65457372  .00007814  00000+0  23222-3 0  9993
2 42988  97.4523 327.7297 0001360 109.0541 251.0850 15.35042344485807
SKYSAT-C9               
1 42989U 17068C   26192.18672867  .00008274  00000+0  19496-3 0  9991
2 42989  97.4444 330.4450 0008945  57.4451 302.7659 15.42149851486456
SKYSAT-C8               
1 42990U 17068D   26190.65650340  .00007514  00000+0  20712-3 0  9994
2 42990  97.4543 327.6181 0001224  99.9689 260.1694 15.37418486485760
SKYSAT-C7               
1 42991U 17068E   26192.08274653  .00006437  00000+0  17785-3 0  9992
2 42991  97.4553 330.0557 0006075  35.1418 325.0226 15.37390204486049
SKYSAT-C6               
1 42992U 17068F   26192.14907779  .00005579  00000+0  17135-3 0  9997
2 42992  97.4591 329.9947 0005167  99.1349 261.0479 15.34124750485996
CARTOSAT-2F             
1 43111U 18004A   26192.18318065  .00003292  00000+0  15944-3 0  9996
2 43111  97.4780 251.5815 0002437 146.2665 213.8725 15.19251955470978
GAOFEN-1 02             
1 43259U 18031A   26192.22168166  .00000658  00000+0  10202-3 0  9994
2 43259  98.0518 254.6801 0001633 308.9652  51.1412 14.76469977446242
GAOFEN-1 03             
1 43260U 18031B   26192.19975603  .00000373  00000+0  61001-4 0  9992
2 43260  98.0505 254.5140 0002726  26.4806 333.6542 14.76459166446232
GAOFEN-1 04             
1 43262U 18031D   26192.17548160 -.00000064  00000+0 -17657-5 0  9994
2 43262  98.0519 254.6835 0001459  57.6747 302.4603 14.76466641446220
SENTINEL-3B             
1 43437U 18039A   26192.17410468  .00000038  00000+0  33847-4 0  9992
2 43437  98.6238 259.3610 0001055 120.7417 239.3868 14.26741288427542
GAOFEN-5 01             
1 43461U 18043A   26190.66830026  .00000209  00000+0  53023-4 0  9990
2 43461  98.4586 162.7286 0002397  43.0598 317.0789 14.60621115434971
GAOFEN-6                
1 43484U 18048A   26192.19779971  .00000241  00000+0  42190-4 0  9990
2 43484  98.0962 254.8901 0012135  93.0498 267.2100 14.76380021436938
GAOFEN-11 01            
1 43585U 18063A   26192.16662604  .00009088  00000+0  13217-3 0  9995
2 43585  97.1286 258.9869 0002825 216.5905 143.5158 15.55984648444073
ICESAT-2                
1 43613U 18070A   26192.18595230  .00005943  00000+0  21552-3 0  9994
2 43613  92.0088 297.4639 0005755  74.0228 286.1655 15.28305826436120
HYSIS                   
1 43719U 18096A   26192.16688034  .00000777  00000+0  11306-3 0  9998
2 43719  97.9832 258.7254 0001864  86.4567 273.6857 14.78666692410965
